OBJECT_NAME,OBJECT_ID,EPOCH,MEAN_MOTION,ECCENTRICITY,INCLINATION,RA_OF_ASC_NODE,ARG_OF_PERICENTER,MEAN_ANOMALY,EPHEMERIS_TYPE,CLASSIFICATION_TYPE,NORAD_CAT_ID,ELEMENT_SET_NO,REV_AT_EPOCH,BSTAR,MEAN_MOTION_DOT,MEAN_MOTION_DDOT
DUBAISAT-1,2009-041B,2026-07-19T05:46:47.352576,14.75170059,.00096016,98.0090,333.1548,334.9940,25.0803,0,U,35682,999,90982,.6259987E-4,.372E-5,0
OCEANSAT-2,2009-051A,2026-07-19T05:24:28.573344,13.99656015,.0017599,98.2323,183.8781,141.9371,218.3043,0,U,35931,999,88381,.36736008E-4,.16E-6,0
WORLDVIEW-2 (WV-2),2009-055A,2026-07-19T07:29:56.577696,14.37907636,.00054479,98.4753,273.3247,120.0430,240.1298,0,U,35946,999,88026,.27575761E-4,.4E-6,0
SMOS,2009-059A,2026-07-19T05:27:14.457888,14.39737271,.00011904,98.4431,27.0927,97.4779,262.6545,0,U,36036,999,87806,.4753391E-4,.105E-5,0
YAOGAN-7,2009-069A,2026-07-19T04:16:17.463360,14.78037513,.00233034,98.0027,85.8413,297.9138,61.9713,0,U,36110,999,89435,.31530346E-4,.175E-5,0
TANDEM-X,2010-030A,2026-07-18T09:55:08.788224,15.19148720,.0001893,97.4455,206.6773,96.8961,263.2489,0,U,36605,999,89138,.7026452E-5,.8E-6,0
CARTOSAT-2B,2010-035A,2026-07-19T06:43:40.214784,14.78651676,.00127341,97.9930,250.6216,88.2678,271.9992,0,U,36795,999,86459,-.26577405E-4,-.247E-5,0
YAOGAN-10,2010-038A,2026-07-19T07:03:22.089888,14.85434417,.00015624,97.8966,223.4426,81.7235,46.9013,0,U,36834,999,86197,.52817502E-4,.401E-5,0
COSMO-SKYMED 4,2010-060A,2026-07-19T07:24:34.788672,14.82148430,.00015128,97.8896,23.4435,84.9142,275.2244,0,U,37216,999,84932,-.46917603E-4,-.426E-5,0
RESOURCESAT-2,2011-015A,2026-07-19T06:05:43.782144,14.21600124,.00117937,98.7629,267.4715,159.8313,200.3332,0,U,37387,999,79073,.29174169E-4,.2E-6,0
HAIYANG-2A,2011-043A,2026-07-19T07:13:33.816576,13.73205229,.00019939,99.3404,202.2380,21.8468,338.2765,0,U,37781,999,75106,.4933931E-4,.2E-7,0
RASAT,2011-044D,2026-07-19T06:42:45.824256,14.68194841,.002196,98.0580,291.1873,90.6171,344.0179,0,U,37791,999,79789,.31322492E-4,.132E-5,0
SRMSAT,2011-058D,2026-07-19T07:43:04.918080,14.11581571,.00116321,19.9703,224.9688,196.6328,264.6443,0,U,37841,999,76236,.31720622E-4,.324E-5,0
PLEIADES 1A,2011-076F,2026-07-19T07:14:41.124768,14.58547767,.00016106,98.1964,274.9715,78.5814,352.6793,0,U,38012,999,77667,.7523874E-5,-.11E-6,0
ZIYUAN 1-02C (ZY 1-02C),2011-079A,2026-07-19T06:54:45.974304,14.38237679,.00058786,98.4053,266.9239,201.0398,228.2302,0,U,38038,999,76382,.70785416E-4,.172E-5,0
ARIRANG-3 (KOMPSAT-3),2012-025B,2026-07-19T06:19:01.040736,14.62230946,.00059739,98.1188,157.1735,27.8510,332.3011,0,U,38338,999,75603,.45284655E-4,.182E-5,0
EXACTVIEW-1 (ADS-1B),2012-039C,2026-07-19T06:13:02.103168,14.24992846,.0011928,98.9809,318.3783,80.9079,279.3449,0,U,38709,999,72727,.39385142E-4,.46E-6,0
SPOT 6,2012-047A,2026-07-19T07:17:20.092992,14.58540069,.00011091,98.2101,267.2341,91.7425,268.3902,0,U,38755,999,73773,.27468121E-4,.82E-6,0
PLEIADES 1B,2012-068A,2026-07-19T06:05:20.666688,14.58535541,.00014875,98.1934,274.8618,79.5068,280.6299,0,U,39019,999,72552,.17706784E-4,.37E-6,0
GOKTURK 2,2012-073A,2026-07-19T06:59:58.416576,14.75568430,.00010233,97.6809,36.1119,101.7584,258.3741,0,U,39030,999,72924,-.30720478E-4,-.256E-5,0
LANDSAT 8,2013-008A,2026-07-19T05:32:32.675136,14.57095851,.00013437,98.2287,269.9832,91.7224,268.4128,0,U,39084,999,70256,.43472869E-4,.15E-5,0
SARAL,2013-009A,2026-07-19T05:34:38.346528,14.32896385,.00019421,98.5558,26.3946,157.4097,202.7173,0,U,39086,999,70019,.21864598E-4,.16E-6,0
GAOFEN-1,2013-018A,2026-07-19T07:41:28.832640,14.76522032,.00174679,97.9079,271.7331,158.1889,202.0069,0,U,39150,999,71298,.55301552E-4,.335E-5,0
VNREDSAT 1,2013-021B,2026-07-19T07:54:37.512576,14.64886342,.00015271,97.9057,252.5097,81.6704,278.4673,0,U,39160,999,70499,.49699324E-4,.22E-5,0
ARIRANG-5 (KOMPSAT-5),2013-042A,2026-07-19T06:57:01.388160,15.04494331,.00049736,97.6203,26.5388,46.5747,313.5892,0,U,39227,999,70868,-.13377986E-4,-.248E-5,0
SKYSAT-A,2013-066C,2026-07-19T01:37:11.398656,15.13126992,.00208388,97.3798,248.4487,199.5369,160.5066,0,U,39418,999,69330,.84883253E-4,.1447E-4,0
DUBAISAT-2,2013-066D,2026-07-19T06:29:09.500640,15.10387928,.00091451,97.4583,189.5814,287.0874,72.9354,0,U,39419,999,69123,.83820857E-4,.1315E-4,0
GPM-CORE,2014-009C,2026-07-19T06:04:51.857472,15.45071120,.00108896,64.9696,200.6846,263.3235,96.6666,0,U,39574,999,70276,.70981798E-4,.3117E-4,0
SENTINEL-1A,2014-016A,2026-07-19T07:43:23.566656,14.59173784,.00014525,98.1732,207.3846,82.6652,277.4713,0,U,39634,999,65470,.2131307E-4,.55E-6,0
KAZEOSAT 1,2014-024A,2026-07-19T06:51:47.911680,14.42038046,.00012029,98.3191,271.9322,86.0893,274.0435,0,U,39731,999,64318,.10069865E-4,-.1E-6,0
