DUBAISAT-1              
1 35682U 09041B   26200.24082584  .00000372  00000+0  62600-4 0  9990
2 35682  98.0090 333.1548 0009601 334.9940  25.0803 14.75170059909822
OCEANSAT-2              
1 35931U 09051A   26200.22533071  .00000016  00000+0  36736-4 0  9994
2 35931  98.2323 183.8781 0017599 141.9371 218.3043 13.99656015883817
WORLDVIEW-2 (WV-2)      
1 35946U 09055A   26200.31246039  .00000040  00000+0  27576-4 0  9998
2 35946  98.4753 273.3247 0005447 120.0430 240.1298 14.37907636880269
SMOS                    
1 36036U 09059A   26200.22725067  .00000105  00000+0  47534-4 0  9994
2 36036  98.4431  27.0927 0001190  97.4779 262.6545 14.39737271878063
YAOGAN-7                
1 36110U 09069A   26200.17797990  .00000175  00000+0  31530-4 0  9992
2 36110  98.0027  85.8413 0023303 297.9138  61.9713 14.78037513894353
TANDEM-X                
1 36605U 10030A   26199.41329616  .00000080  00000+0  70265-5 0  9995
2 36605  97.4455 206.6773 0001893  96.8961 263.2489 15.19148720891388
CARTOSAT-2B             
1 36795U 10035A   26200.28032656 -.00000247  00000+0 -26577-4 0  9996
2 36795  97.9930 250.6216 0012734  88.2678 271.9992 14.78651676864599
YAOGAN-10               
1 36834U 10038A   26200.29400567  .00000401  00000+0  52818-4 0  9991
2 36834  97.8966 223.4426 0001562  81.7235  46.9013 14.85434417861979
COSMO-SKYMED 4          
1 37216U 10060A   26200.30873598 -.00000426  00000+0 -46918-4 0  9994
2 37216  97.8896  23.4435 0001512  84.9142 275.2244 14.82148430849323
RESOURCESAT-2           
1 37387U 11015A   26200.25397896  .00000020  00000+0  29174-4 0  9993
2 37387  98.7629 267.4715 0011793 159.8313 200.3332 14.21600124790734
HAIYANG-2A              
1 37781U 11043A   26200.30108584  .00000002  00000+0  49339-4 0  9997
2 37781  99.3404 202.2380 0001993  21.8468 338.2765 13.73205229751062
RASAT                   
1 37791U 11044D   26200.27969704  .00000132  00000+0  31322-4 0  9991
2 37791  98.0580 291.1873 0021960  90.6171 344.0179 14.68194841797896
SRMSAT                  
1 37841U 11058D   26200.32158470  .00000324  00000+0  31721-4 0  9994
2 37841  19.9703 224.9688 0011632 196.6328 264.6443 14.11581571762368
PLEIADES 1A             
1 38012U 11076F   26200.30186487 -.00000011  00000+0  75239-5 0  9999
2 38012  98.1964 274.9715 0001610  78.5814 352.6793 14.58547767776671
ZIYUAN 1-02C (ZY 1-02C) 
1 38038U 11079A   26200.28803211  .00000172  00000+0  70785-4 0  9995
2 38038  98.4053 266.9239 0005878 201.0398 228.2302 14.38237679763826
ARIRANG-3 (KOMPSAT-3)   
1 38338U 12025B   26200.26320649  .00000182  00000+0  45285-4 0  9995
2 38338  98.1188 157.1735 0005973  27.8510 332.3011 14.62230946756039
EXACTVIEW-1 (ADS-1B)    
1 38709U 12039C   26200.25905212  .00000046  00000+0  39385-4 0  9999
2 38709  98.9809 318.3783 0011928  80.9079 279.3449 14.24992846727271
SPOT 6                  
1 38755U 12047A   26200.30370478  .00000082  00000+0  27468-4 0  9994
2 38755  98.2101 267.2341 0001109  91.7425 268.3902 14.58540069737734
PLEIADES 1B             
1 39019U 12068A   26200.25371142  .00000037  00000+0  17707-4 0  9999
2 39019  98.1934 274.8618 0001487  79.5068 280.6299 14.58535541725527
GOKTURK 2               
1 39030U 12073A   26200.29164834 -.00000256  00000+0 -30720-4 0  9995
2 39030  97.6809  36.1119 0001023 101.7584 258.3741 14.75568430729246
LANDSAT 8               
1 39084U 13008A   26200.23093374  .00000150  00000+0  43473-4 0  9997
2 39084  98.2287 269.9832 0001343  91.7224 268.4128 14.57095851702563
SARAL                   
1 39086U 13009A   26200.23238827  .00000016  00000+0  21865-4 0  9996
2 39086  98.5558  26.3946 0001942 157.4097 202.7173 14.32896385700195
GAOFEN-1                
1 39150U 13018A   26200.32047260  .00000335  00000+0  55302-4 0  9994
2 39150  97.9079 271.7331 0017467 158.1889 202.0069 14.76522032712988
VNREDSAT 1              
1 39160U 13021B   26200.32960084  .00000220  00000+0  49699-4 0  9992
2 39160  97.9057 252.5097 0001527  81.6704 278.4673 14.64886342704991
ARIRANG-5 (KOMPSAT-5)   
1 39227U 13042A   26200.28959940 -.00000248  00000+0 -13378-4 0  9990
2 39227  97.6203  26.5388 0004973  46.5747 313.5892 15.04494331708684
SKYSAT-A                
1 39418U 13066C   26200.06749304  .00001447  00000+0  84883-4 0  9994
2 39418  97.3798 248.4487 0020838 199.5369 160.5066 15.13126992693304
DUBAISAT-2              
1 39419U 13066D   26200.27024885  .00001315  00000+0  83821-4 0  9993
2 39419  97.4583 189.5814 0009145 287.0874  72.9354 15.10387928691230
GPM-CORE                
1 39574U 14009C   26200.25337798  .00003117  00000+0  70982-4 0  9997
2 39574  64.9696 200.6846 0010889 263.3235  96.6666 15.45071120702763
SENTINEL-1A             
1 39634U 14016A   26200.32180054  .00000055  00000+0  21313-4 0  9993
2 39634  98.1732 207.3846 0001452  82.6652 277.4713 14.59173784654700
KAZEOSAT 1              
1 39731U 14024A   26200.28597120 -.00000010  00000+0  10070-4 0  9991
2 39731  98.3191 271.9322 0001202  86.0893 274.0435 14.42038046643180
